name,phone,email,id_num,street,city,zip,region,gpa,major
Martha Hayes,1-652-618-2053,ullamcorper.nisl.arcu@dapibus.co.uk,AZ92706976493275158555821774,Ap #264-8253 Aenean Av.,Porto Alegre,5444,RS,2,Operations Management and Logistics
Eliana Snow,1-157-354-0465,neque.non.quam@Nullamfeugiatplacerat.com,BE90298489728155,Ap #187-5266 Nisi. Ave,South Dum Dum,93-348,WB,3,Project Management
Keane Baker,1-885-194-7293,tortor.at.risus@Aeneanegetmagna.ca,SM4299168429241391936731802,6987 Mi. Av.,Bydgoszcz,38865,Kujawsko-pomorskie,3,Secondary Education - Physics
Shellie Bowen,1-464-541-2567,a@consequat.com,TN5608534457596903564798,"Ap #581-4074 Non, Rd.",Lauro de Freitas,X5C 6P0,BA,4,Global Studies (Asian Studies)
Jordan Newman,1-331-945-9420,eleifend.nunc@acfeugiat.edu,SE6369259113792942651783,4053 Nullam Rd.,San Rafael,71961-770,San José,2,Sustainable Business and Leadership
Uma Hopper,1-904-624-1210,dolor.dapibus@eu.org,MD4371216721062113510709,Ap #203-3965 Phasellus St.,Villa Cortese,57011,Lombardia,5,Social Work
Gregory Nguyen,1-393-207-5476,eleifend@magnaLorem.net,PL91618487727563254642179051,664-409 Et Av.,Mezzana,9036,Trentino-Alto Adige,3,Health Information Systems Management
Claire Gibbs,1-369-896-4154,Nullam.velit.dui@ultrices.ca,MT88DPOL17483214351816280977903,Ap #659-8816 Urna. Avenue,Cork,N7T 3C6,M,3,Social Work
Colleen Brewer,1-528-781-0814,semper.dui@Lorem.org,IT680JUGDI40407833094657747,988-831 Mauris Av.,Vallepietra,5126,LAZ,5,Higher Education and Organizational Change
Yen Andrews,1-596-361-6103,Vivamus@fringillaporttitorvulputate.ca,TR866143364831492241384474,"Ap #535-4809 Non, Av.",Belfast,77735,Ulster,5,Music
Andrew Boone,1-319-205-4514,est.ac@non.org,MR9567594430508267297731569,"P.O. Box 389, 7519 Molestie Road",Nijmegen,50013,Gelderland,2,Information Systems Management
Jack Cook,1-654-420-6760,odio.Etiam.ligula@nullavulputate.edu,CZ0526502431053477808541,2420 Dis Rd.,Montgomery,2716ZO,MG,3,Clinical Psychology
Illiana Hamilton,1-382-620-2469,Sed.neque.Sed@anteiaculisnec.co.uk,AE237345117988742013754,"P.O. Box 445, 1225 Nascetur Avenue",Goulburn,437852,NSW,3,Science Content and Process
Cheyenne Rivera,1-154-827-4066,varius.orci.in@Phasellusornare.org,MC9129332912064775368675978,781-2493 Viverra. Ave,Orvault,934648,PA,4,Sports Management
Amity Glenn,1-112-594-2663,est.ac@noncursus.ca,PS068202709073436306887774744,418-2186 Eget Rd.,Huntly,9301,North Island,2,Taxation
Marvin Reese,1-184-473-4147,metus@egestasAliquam.ca,TN6186209835162321834900,697-8294 In Avenue,Bajardo,M6 3JJ,Liguria,2,Undecided
Vaughan Lester,1-256-785-6599,facilisis.vitae.orci@etliberoProin.ca,AT529163206153891886,6942 Maecenas St.,Issy-les-Moulineaux,935617,Île-de-France,2,Accountancy
Andrew Herman,1-775-474-9467,id.libero@interdumSedauctor.ca,MK41346272255114560,6999 Nulla St.,Carapicuíba,60013,SP,4,Political Science
Basia Coffey,1-729-961-0816,nibh.Quisque@habitant.ca,TR634242704570152636271519,Ap #937-2042 Nunc Av.,Sapele,780751,Delta,5,Medical Humanities
Tobias Zimmerman,1-941-485-0450,nec@sed.com,IL673620584434422996481,Ap #370-5366 Gravida Av.,Uberlândia,1006,MG,2,International Management
Calvin Diaz,1-127-407-2036,eu@aliquet.com,TR911377507013874228496997,"P.O. Box 220, 6875 Nulla Avenue",Dillenburg,61086,Hesse,3,Secondary Education - Mathematics
Sierra Sherman,1-951-646-1312,dictum.Proin.eget@scelerisqueneque.edu,CY70078114872968005524718819,"P.O. Box 323, 6061 Mollis St.",Concepción,40905,San José,3,Business Analyst
Hedda Nelson,1-464-300-6149,nunc.sed.pede@orcilacus.com,DK3543683731187676,"P.O. Box 450, 1269 Cras Rd.",Orvault,91004,Pays de la Loire,3,Diagnostic Medical Sonography
Liberty Yang,1-177-136-5979,eleifend.vitae.erat@tellusSuspendissesed.org,GE67989589271954266874,1795 Scelerisque St.,Flin Flon,69459,MB,2,Business and Economics
Petra Norman,1-429-847-8672,sit@tristiqueaceleifend.ca,HR5288073556765415435,309 Dis St.,Bia?a Podlaska,2803,Lubelskie,5,Management
Kitra Richmond,1-970-625-8896,vel@insodales.com,GL8574357632193496,3101 Donec St.,Piracicaba,S5Z 0Y3,SP,5,Integrated Marketing Communications
Kamal Merrill,1-828-644-7966,posuere.at@Curabitur.org,NL32NDXR7692871993,"P.O. Box 865, 2729 Ut Ave",Istanbul,40772-460,Ist,5,Management and Organizational Behavior (accelerated)
Colton Farrell,1-949-238-3308,accumsan.laoreet@placeratvelitQuisque.ca,DK8842709330298468,649-7159 Fermentum Rd.,Koszalin,40911,ZP,4,Operations Management and Logistics
Cora Richardson,1-477-575-0527,ut.aliquam@tempus.co.uk,BG46SNWL77103462723802,"Ap #308-8480 Sed, Road",Sint-Kwintens-Lennik,30498,Vlaams-Brabant,4,Spanish
Germaine Reid,1-874-394-6965,Praesent@magnaPhasellus.net,AT481044288011110898,6541 Pede Ave,Perwez,29859,Waals-Brabant,5,Political Science
Kelsie Crosby,1-186-210-1292,Quisque.ornare.tortor@vestibulum.edu,SI76483174778755221,"P.O. Box 765, 8077 Nec Rd.",Tarragona,60391,CA,5,Economics
Arthur Jenkins,1-229-571-9726,Integer.sem@sodales.org,CH3986677483960143372,Ap #644-4664 Odio. St.,Colorado Springs,52474,CO,4,Business Administration
Raya Joseph,1-753-673-0499,vel.arcu.eu@Phasellusdapibusquam.co.uk,IS726773632773662846268166,280-982 Fringilla. Av.,?mamo?lu,4374,Adana,2,Biology
Rhoda Stein,1-945-666-3664,metus@nonmassanon.co.uk,EE303389838861546900,"P.O. Box 842, 1501 Lorem. Street",Bafra,85432,Samsun,4,International Business and Economics
Ferdinand Cunningham,1-551-449-2005,aliquet.Proin@in.com,IL537777440673482240448,"Ap #205-5530 Montes, Rd.",Veere,70471,Zeeland,4,Operations Management and Logistics
Nora Mullins,1-776-546-8532,mattis@turpisegestas.org,SE8629553176337103044911,154-7041 Ac Street,Sudbury,70861,Suffolk,4,Global Studies (Middle Eastern Studies)
Alexandra Calderon,1-544-526-0085,scelerisque.dui@Duis.org,MR1871669122346716669858332,222-9309 Nisl. Av.,Beypazar?,0802GT,Ankara,3,History
Caryn Harper,1-450-874-9785,Maecenas.mi@Suspendisse.net,LT868007907915993676,328-2835 Et Rd.,New Haven,N8A 8R3,CT,2,Health Education and Promotion
Carissa Blake,1-980-854-9809,sit.amet@Nullamlobortis.co.uk,BA223222622014385325,Ap #216-2035 Euismod Rd.,Richmond,E2E 6X9,VA,4,Political Science
Elizabeth Bender,1-877-467-6363,ligula.eu.enim@necorci.com,MT25RUGH32100784359484045149271,1980 Egestas. Ave,Grave,59223,Noord Brabant,3,Public Health
Violet William,1-264-861-7245,sapien.cursus@liberoat.ca,SK1752830924964057266296,Ap #613-9685 Leo. St.,Whitby,1373,Ontario,4,Internet Marketing
Tana Maynard,1-847-151-9603,turpis@vel.co.uk,LU248298037901702947,"P.O. Box 679, 5130 Magna Street",Wals-Siezenheim,S4H 1P7,Sbg,3,Biology
Regan Benton,1-992-188-1469,augue@vulputatelacusCras.com,ES3383023935187103862048,Ap #365-450 Dolor. Ave,Stokrooie,62-724,Limburg,5,Pre-Professional Health - Physical Therapy
Ira Haley,1-216-952-6386,vitae.aliquet@a.edu,MR7067185155175555238073095,661-2336 Magna. Rd.,Berlin,4757,BE,2,Secondary Education - Business and Economics
Lacota Shields,1-728-879-2814,faucibus@tinciduntcongueturpis.net,PK1130853782132650789553,Ap #222-9240 Pede. Rd.,Flushing,E0 8AE,Zl,2,Special Education
Dexter Workman,1-594-985-2526,non.magna.Nam@duiFuscealiquam.com,KZ356154338339351121,Ap #691-1544 Nulla Av.,Lauder,74481-544,BE,2,Writing and Publishing
Madeson Joseph,1-288-963-4279,sit.amet.massa@mollisInteger.net,TR790671016407291769769514,"Ap #313-2785 Dui, St.",Knoxville,4615,Tennessee,3,International Business and Economics
Victor Mccormick,1-334-500-4279,ipsum.nunc.id@quamdignissimpharetra.edu,LT509305751600240080,"Ap #421-7534 A, Rd.",Middelburg,10813,Zl,5,Nutrition Entrepreneurship
Lee Faulkner,1-582-127-4291,pellentesque.tellus.sem@Aliquam.edu,NL55BLJA4171974125,Ap #251-2933 Proin St.,Denver,91877,CO,3,Accountancy
Coby Henson,1-681-223-6820,molestie.in.tempus@leoVivamus.co.uk,RO27XNKV0539173359832099,"P.O. Box 465, 1971 Sed St.",Nairn,3948,NA,5,Pre-Professional Health - Pharmacy
Barry Herrera,1-608-523-2550,Morbi.metus@Nullamvelitdui.edu,GE93409080691382880168,"Ap #534-8493 Amet, Street",Getafe,663171,Madrid,3,Spanish
Bernard Nunez,1-193-595-5397,Lorem@Sedauctorodio.net,AD1590871165287845420976,"P.O. Box 388, 425 Nec Street",Wroc?aw,250496,Dolno?l?skie,5,Medical Humanities
Germane Hoover,1-112-158-9902,erat.Etiam@necleoMorbi.edu,SI54139955000253654,843 Velit Ave,Metairie,40510,LA,3,Human Resource Management
Rahim Mitchell,1-109-605-4234,dapibus.rutrum.justo@Vestibulum.ca,CZ3988102239437797391409,Ap #448-7369 Eget St.,Saumur,1483,PA,2,Music Education
Mason Atkins,1-383-269-8352,nascetur.ridiculus@nisisemsemper.net,BH87791284856895268272,Ap #263-8985 Magna Rd.,Mauá,89129,SP,3,Biology
Cairo Garrison,1-937-297-8853,vitae.purus.gravida@et.org,RS48700597701860658924,"P.O. Box 177, 1201 Ut, St.",Bathurst,46-444,New South Wales,2,Pre-Professional Health - Medicine
Adrienne Hahn,1-624-666-3157,aliquet@eratvitaerisus.edu,IL410821518455423374780,9610 Feugiat. St.,Vienna,39277,Wie,2,Forensic Accounting
Zia Hampton,1-552-821-9600,Nullam.velit@ornaretortorat.com,MR3967932434151300537836238,Ap #284-8708 Quisque Street,Bayswater,30811,Western Australia,3,Spanish
Carissa Porter,1-975-637-9889,risus@utlacus.edu,AZ75027029313490275276563306,974-1799 Eget St.,Torrevieja,658424,CV,5,Taxation
Porter Jordan,1-820-340-6589,ut.nulla.Cras@veliteu.net,FR4092527220872025414016900,Ap #348-4438 Sed St.,Shreveport,10510,LA,2,Secondary Education - Chemistry
Hedda White,1-284-356-6117,gravida@malesuada.ca,GE10202996201333460804,"306-6057 Orci, Road",Provo,60736-613,Utah,5,Management in a Professional Technical Environment
Zelenia Glass,1-225-583-8366,justo.eu.arcu@enimcondimentum.edu,KZ245240967170516675,7987 Varius Ave,Kozan,24210,Adana,3,Advanced Accounting
Otto Love,1-808-139-2027,Cras.interdum.Nunc@enimSed.net,LU473145343850001914,"Ap #103-8009 Nec, St.",Helena,84-477,MT,5,Management in a Professional Technical Environment
Wayne Henry,1-584-591-3945,odio.Nam.interdum@non.net,HU93439380888251257293191806,907-7601 Feugiat Road,A Coruña,41341,Galicia,4,Operations Management and Logistics
Jemima Duffy,1-588-122-5035,lorem.auctor.quis@facilisiseget.org,NO1243474438651,"381-8766 A, Rd.",Wellingborough,97946,Northamptonshire,2,Organization Development
Emerson Caldwell,1-316-608-8783,tristique.aliquet@Duis.com,PL54470541218155505684304075,"P.O. Box 486, 6905 Nec Rd.",Liverpool,634729,New South Wales,2,Music Education
Jelani Cross,1-922-458-9519,nibh@blanditcongueIn.net,LI2094431747043964840,"P.O. Box 193, 6090 Et, Street",Kalisz,64200,Wielkopolskie,4,Computer Information Systems
Raven Bernard,1-187-217-2488,sem@Curabiturut.co.uk,CY37267272261446826578425637,2790 Orci Rd.,Anchorage,35485,AK,5,Global Studies (Latin Studies)
Ariana Randolph,1-329-563-7160,Sed.id.risus@ac.edu,SM5177071960048595271912187,"6351 Suscipit, St.",Atlanta,21336,GA,4,Physical Education
Olga Gibbs,1-755-161-7897,Cum.sociis@metus.ca,VG1316895144857467443251,327-3462 Mi. Av.,Belfast,34404-567,Ulster,4,Business Analytics
Beverly Petty,1-132-162-4663,placerat.orci@auctor.edu,RO47MCYE8565542399550880,9836 Sem Road,Squillace,W1 2JN,Calabria,5,Secondary Education - English Language and Literature
Abra Riddle,1-580-692-5016,sed.turpis@tellusidnunc.co.uk,LV82QDOW2933122505068,"P.O. Box 723, 2709 Primis Ave",Hillsboro,58941-893,OR,4,Business Administration
Gavin Justice,1-333-547-1450,egestas.ligula@magnisdis.co.uk,VG9302508168197479891795,"P.O. Box 361, 4553 Imperdiet Rd.",Polatl?,21208-656,Ankara,5,Physics
Sierra Roman,1-446-573-0813,pharetra@atsem.com,AE659540302881653983058,Ap #809-733 Cubilia Street,Shawville,46740-532,Quebec,5,Human Resource Management
Dillon Molina,1-249-621-8299,interdum@tristiquealiquetPhasellus.org,RO23BNHU9662257739283953,"P.O. Box 359, 6106 Neque Road",Hilo,40408,Hawaii,4,Financial Management
Donovan Heath,1-246-221-6040,ac.tellus@Maurisnon.ca,SK1060893756445317132036,"312-2041 A, Av.",Shreveport,4368,Louisiana,4,Environmental Science
Lesley Montoya,1-298-256-9948,massa.Integer@metus.edu,AD0862712163685151884389,904 Cursus. Rd.,North Battleford,7871,SK,5,Gender Studies
Mollie Townsend,1-944-669-8461,neque@tortor.org,FI8709598738840146,"P.O. Box 887, 7970 Sodales Road",Lesve,67226,Namen,4,Human Resource Management
Kelsey Diaz,1-280-501-3591,Integer.in.magna@sapienAeneanmassa.edu,DO49856920332547456437720650,605-4693 Nunc Avenue,Wabamun,4623NV,Alberta,4,Political Science
Brooke Alston,1-538-278-0032,sagittis@liberoProinmi.co.uk,DO72463770535267586737498527,"P.O. Box 576, 8121 Orci Road",Cincinnati,79847,OH,3,Derivatives Trading
Brittany Sandoval,1-932-553-7420,nec.diam.Duis@ProinmiAliquam.ca,PL83459410742298112254679100,836-8236 Neque St.,Nicoya,70496,Guanacaste,2,Organizational Leadership
Amanda Collier,1-626-390-1265,in@mollisPhaselluslibero.ca,MT08VOQC30648629140939996641293,"P.O. Box 323, 9999 Nunc St.",Vaughan,83779,ON,5,Business Analytics
Nadine Battle,1-635-154-2687,Nunc.sed.orci@ultrices.com,IT656JMIQI26975064432844166,"P.O. Box 248, 2455 Nulla Rd.",Kalisz,00023-923,Wielkopolskie,4,Engineering Science
Palmer Hinton,1-198-948-7272,eu.placerat@dapibusligula.com,BH49962224969735318671,"P.O. Box 131, 2768 Aliquam Ave",Galway,05-411,C,3,Music
Kendall Thornton,1-341-147-5271,nonummy.ac.feugiat@inconsequat.edu,AD9878044026442525598744,"P.O. Box 577, 3822 Sed Avenue",Dublin,51252,L,5,Business Administration
Keaton Anthony,1-112-553-1208,a.aliquet@loremeu.com,CY25223857476347997300752851,"8239 Nec, Rd.",Warszawa,6007,MA,5,Philosophy
Adrienne Underwood,1-718-373-7510,nulla.magna@euismodenim.edu,ME58430718892066351651,894-4814 Ut Av.,Colchester,HA8Z 7GL,VT,5,Public Health
Hyatt Santana,1-528-543-8384,ipsum.ac@Integer.com,SE9029930604677274196907,"P.O. Box 696, 6910 Dignissim. Rd.",San José de Alajuela,75201,A,4,Pre-Professional Health - Physical Therapy
Halee Foley,1-725-825-2807,mattis.ornare.lectus@Suspendisse.com,GE23580582848168023603,7803 At St.,Minneapolis,92209,Minnesota,4,Financial Management
Wynter Olsen,1-760-984-7754,lorem@mauris.co.uk,BE32406496493993,9859 Aliquam Av.,Firozabad,4961,Uttar Pradesh,5,Business Law
Hammett Wise,1-392-427-2564,odio@semperegestas.com,MD0422475618441366178083,277-605 Duis Road,Forres,00-168,Morayshire,4,Computer Science
Raymond Morton,1-319-253-7322,Maecenas.libero@risus.net,MK44310292618573365,Ap #630-9136 Fringilla St.,San Felipe,4211,San José,3,Pre-Professional Health Programs
Cedric Roy,1-864-734-2109,velit.Sed.malesuada@vitae.com,PL19495174519171346690585303,8547 Libero St.,Bremerhaven,58287,Bremen,5,Education
Dominique Hewitt,1-567-919-0662,lacus.Nulla@Duisdignissim.ca,AT748387617670854924,"P.O. Box 732, 2331 Sed Street",Maringá,19873,PR,4,Health Management and Policy
Bianca Reynolds,1-546-371-7097,sit.amet.consectetuer@in.edu,GB77HGVW67565208767930,264-5414 Tincidunt Av.,Sluis,157941,Zeeland,2,Secondary Education - English Language and Literature
Uriel Mclean,1-702-140-3824,lectus@erategettincidunt.edu,GR2413286285859741629550855,"P.O. Box 742, 2982 Non St.",Vierzon,3305,Centre,4,Business Administration
Buffy Best,1-241-667-9083,sit@euerat.ca,SE7092765688256490666154,5118 Ac Ave,Vienna,46053,Vienna,4,Undecided
Odessa Ortega,1-147-333-0987,in.consequat@Quisque.net,IT253XLMCI16507175837474880,"449-7207 Nec, St.",Mango,853053,JH,3,Secondary Education - Social Science
Suki Talley,1-997-143-9154,a@Donecluctusaliquet.ca,AL92268689328391668683790324,"P.O. Box 441, 367 Arcu. Rd.",Heppignies,5182,Henegouwen,5,Biochemistry / Molecular Biology
Jesse Delacruz,1-799-908-6729,iaculis.aliquet.diam@lacusvestibulum.com,DK6971660513935837,"P.O. Box 157, 3698 Est Av.",Victor Harbor,A4J 9S8,SA,2,Business Administration
Kirby Diaz,1-500-588-7340,purus@FuscefeugiatLorem.ca,VG6188572156419547118878,Ap #289-535 Nunc St.,Alcobendas,90861,Madrid,4,Health Education and Promotion
MacKensie Duran,1-198-856-8230,a@dolorFusce.org,LV69BUKE9989989867698,"P.O. Box 120, 1670 Sed Road",Kassel,38048,HE,4,Management
Mara Lang,1-277-618-3959,et.rutrum.non@arcuNuncmauris.org,BA217115277606243766,Ap #958-2656 Tincidunt Street,Heerhugowaard,3083XL,N.,3,Music Education
Jaquelyn Rose,1-474-700-9096,sit.amet.consectetuer@maurisSuspendissealiquet.ca,AL72916125781761585150635131,"Ap #121-1354 Eget, Rd.",Mercedes,7136,H,4,Health Administration
Anthony Stout,1-497-487-2539,tincidunt.vehicula.risus@Nullam.edu,ME84611013468298134822,631-8267 Tempor Avenue,Wrigley,80-780,Northwest Territories,5,Nutrition and Wellness
Eden Farmer,1-965-512-2637,vestibulum.lorem.sit@Nullamsuscipit.org,FI9255541766233561,Ap #345-9413 Adipiscing. Av.,Dublin,449984,Leinster,2,Clinical Life Science - Respiratory Care
Hanna Flynn,1-702-705-3080,hendrerit@leoMorbi.ca,DO43981133204960371613108753,975-6869 Posuere St.,San Rafael Abajo,3503,SJ,2,Health Education and Promotion
Suki Chan,1-829-794-6200,egestas.a@magnis.co.uk,AE280598243910416087887,Ap #533-1983 Erat Av.,Hilversum,43249,N.,5,Entrepreneurship and Managing Innovation
Berk Mercer,1-291-858-0529,odio.Nam@velconvallis.net,AL26269262513387802900788711,8583 Non Street,Wagga Wagga,3433,New South Wales,4,Secondary Education - Social Science
Zachary Poole,1-646-550-0557,Ut@enim.ca,MR7701448922973690102775711,Ap #858-5278 Lectus. Road,Middelburg,04404-464,Zeeland,4,Marketing
Charles Ruiz,1-571-276-1728,lacus@eget.com,PS957886994202236206981643432,283 Nibh Road,Runcorn,01-690,Cheshire,5,Secondary Education - Chemistry
Rina Hickman,1-466-916-6150,non@feugiatLoremipsum.ca,GR5705711111515834024327947,"P.O. Box 981, 7735 Nulla Road",Cranbrook,54507,British Columbia,5,Health Education and Promotion
Carol Boone,1-744-139-4220,scelerisque@dolor.ca,AL96455989022979772010718294,Ap #601-5249 Massa. St.,Treppo Carnico,10806,Friuli-Venezia Giulia,4,Entrepreneurship and Managing Innovation
Alexander Sykes,1-513-855-1909,accumsan.laoreet.ipsum@Donecfeugiat.net,TR226399434068525733922174,4676 Erat. Av.,Grafton,2295,NSW,5,Chemistry
Amanda Crane,1-277-111-3777,ipsum.porta@id.edu,BH67878218141531207677,116 Fringilla Road,São João de Meriti,49024,RJ,4,Human Resource Management
Nigel Rios,1-167-306-0625,iaculis@Maurisblanditenim.com,IE17RUXC94012426583013,171-4097 Ut Rd.,North Bay,35863,ON,5,Economics
Axel Blanchard,1-875-502-9865,consequat.purus@sitamet.edu,GT13381007518745032704218508,938-8165 Nunc. Rd.,Hastings,861,Sussex,2,Higher Education and Organizational Change
Galena Alvarez,1-390-363-3710,nonummy.ut@augue.com,LV38DDZM6806592761683,9323 Felis Street,Bydgoszcz,4855,KP,4,Communication Arts
Vera Knowles,1-113-212-3778,facilisis.Suspendisse.commodo@cursusa.co.uk,CZ4356617319245625481002,"P.O. Box 744, 7339 Est. St.",Caprino Bergamasco,94997,LOM,4,Public Health
Justine Grant,1-434-923-0872,adipiscing.ligula.Aenean@scelerisquemollis.net,TN9758703779078291679069,Ap #686-2881 Eu Ave,Recogne,9658,LX,3,Management
Ira Bond,1-845-508-7867,faucibus.orci@CuraePhasellusornare.net,TN7962208977601574131131,"4435 Tincidunt, Street",North Las Vegas,64021,Nevada,3,Environmental Science
Charde Mullen,1-194-548-2984,vitae.aliquet.nec@scelerisquescelerisque.ca,DE58476542200793297681,989-2098 Aliquet Street,San Pietro al Tanagro,58724,CAM,4,Secondary Education - Social Science
Sharon Alford,1-765-591-7613,tristique@Aliquamornarelibero.co.uk,LV34WVBI7386838587116,"P.O. Box 822, 3924 Consequat, Avenue",Upper Hutt,6874IN,North Island,5,International Business and Economics
Ciara Molina,1-902-639-1821,pede@Innecorci.edu,SK3649059171822581597354,Ap #888-2711 Metus. Street,Toulon,40617,Provence-Alpes-Côte d'Azur,3,Clinical Laboratory Science
Dominique Cross,1-638-987-7550,Aenean.eget.metus@Utsemperpretium.org,FR6626471330222787206888550,"P.O. Box 394, 2000 Imperdiet Av.",Groenlo,RR7 8KM,Gl,3,Business with Science Applications
Derek Miller,1-868-935-1513,libero@pellentesqueegetdictum.net,GR4964873287772197775208437,"P.O. Box 180, 5351 Aliquam Av.",Siedlce,52290,MA,5,Health Education and Promotion
Colton Key,1-659-671-1905,vestibulum@elit.net,CH6817305360695138256,834-6992 Accumsan Av.,Tarnów,86361,MP,2,Pre-Professional Health - Dentistry
Tanner Le,1-862-818-8657,ac.risus.Morbi@vulputate.co.uk,LI7494473321923976063,8245 Nibh. Av.,Granada,PK3 6OO,Andalucía,4,Business Analytics
Ingrid Gentry,1-249-772-6917,dolor.dapibus@Nulla.org,AZ77987115256591185685944910,6387 Quisque Rd.,Kawawachikamach,239779,Quebec,4,Business Analytics
Mara Stanley,1-197-906-0805,Donec.felis@Suspendisseac.net,TR770590329495003281524483,572 Sem St.,North Shore,75-755,NI,2,Sustainable Business and Leadership
Odessa Soto,1-965-155-8143,non.vestibulum.nec@auctor.net,NO4669613250266,794-6539 Mauris. Road,Issy-les-Moulineaux,4052,IL,5,Nutrition
Heidi Delacruz,1-938-459-7946,arcu.Nunc@ligulaAeneangravida.co.uk,FO6754316488187492,263-9498 Lacinia Rd.,Izmir,934143,?zmir,5,History
Jordan Acevedo,1-460-479-4460,est.vitae@imperdiet.net,CR2571116299541830548,"P.O. Box 742, 9552 Lectus Street",Bellevue,609795,Washington,3,Economics
Nasim Battle,1-919-650-9187,lacus@Nam.org,SA6265302187118923832933,"P.O. Box 107, 1259 Pulvinar Road",San Isidro de El General,1753,SJ,3,Public Health
Idola Osborne,1-735-752-4700,feugiat.nec.diam@pretium.org,KZ470436298353213315,9494 Euismod Rd.,Olympia,B4X 1N3,WA,5,Alternative Licensure
Jonah Shaffer,1-944-816-8855,ut.aliquam.iaculis@Quisque.co.uk,ME34985801010231589245,9690 Nunc Street,Ely,32787,CA,5,Project Management
Duncan Mason,1-482-750-0972,convallis.ante.lectus@elitdictum.com,HR8534848010111821561,8170 Quis Rd.,Belfast,9089,Ulster,4,Disaster Management
Stewart Beasley,1-680-554-4225,quam@Cras.net,IL272242243560573996799,"P.O. Box 189, 8078 Sit Road",Tarnów,84209,Ma?opolskie,5,Higher Education and Organizational Change
Venus Goodwin,1-446-966-3366,nunc@a.net,HR5666247112799640081,Ap #840-7679 Sollicitudin Rd.,Wa?brzych,44-353,DS,4,Management Information Systems
Irene Ramsey,1-524-114-7907,dictum.augue@ligulaeuenim.org,LU274449347255770325,Ap #506-3372 Ipsum. Street,Ankara,R9V 5J4,Ank,5,Psychology
Dai Rosa,1-727-816-6109,Sed@Quisque.net,GL7061080482623335,602-2921 Velit. Street,Katowice,2468,SL,2,Theology in Life
Martina Cortez,1-853-775-9953,per.inceptos@Morbimetus.co.uk,LI4160691380136543531,"P.O. Box 535, 9895 Malesuada Avenue",Belfast,2564LK,Ulster,2,Business Analyst
Roary Hoffman,1-152-214-0610,lobortis@enim.com,AZ34671192113279061707975172,3989 Fringilla. Rd.,Dublin,04230-173,Leinster,4,Mathematics - Actuarial Science
Ignatius Hubbard,1-117-583-4737,lobortis@vehicularisus.ca,GE81178207150342155548,Ap #546-3291 Eu Rd.,Brive-la-Gaillarde,55959-786,LI,5,Business Analytics
Signe Walker,1-830-729-2662,a.enim.Suspendisse@vestibulum.net,PL58459011592782122831052065,Ap #428-340 Per St.,Tirrases,8622,SJ,2,Accountancy
Chiquita Gomez,1-122-389-2940,fermentum.risus.at@metussit.edu,ES3416462358075580960943,"P.O. Box 912, 9033 Aliquet Ave",Söke,36585,Ayd?n,4,Anthropology
Ima Oconnor,1-649-110-6280,auctor.velit.eget@nullaIn.org,FO5632928785769414,Ap #586-5620 Maecenas Rd.,Cottbus,8298,BB,4,Derivatives Trading
Jack Miles,1-410-879-8546,nisi@luctusut.co.uk,IL751974269894141141181,"P.O. Box 420, 6506 Auctor, St.",Berlin,23932-873,Berlin,2,Taxation
Abbot Stanley,1-332-196-5476,erat.Vivamus@luctus.com,EE186546583437355743,"P.O. Box 582, 9662 Fames Av.",Purral,68153,SJ,5,Secondary Education - Spanish
Allegra Puckett,1-216-758-7741,purus.ac.tellus@eratsemper.ca,KW8657732885430514725000963647,"P.O. Box 588, 9226 Aliquam, Rd.",Bremen,7225,Bremen,3,Mathematics - Actuarial Science
Wallace Hodge,1-559-695-6405,justo.nec.ante@Vivamus.org,RS91251867003950173706,7306 Quis Av.,Hamburg,M5W 2A7,HH,2,Pre-Professional Health - Chiropractic
TaShya Woodward,1-542-859-7715,sem.ut.dolor@Nullatemporaugue.ca,SA4093913261735926935723,186-9290 Proin Rd.,Przemy?l,68-172,Podkarpackie,2,Management and Organizational Behavior
Denise Kinney,1-881-581-7684,vitae.sodales.nisi@etmagnisdis.edu,AL81984802080204960795566431,270-7198 Quisque St.,Coassolo Torinese,2256,PIE,4,Alternative Licensure
Summer Dixon,1-223-351-8005,Morbi.metus@orcilacus.ca,EE656185203198517062,"Ap #418-6949 Elementum, Av.",New Plymouth,2690,North Island,4,Nutrition and Wellness
Sawyer Park,1-901-984-0714,fringilla@rutrumjustoPraesent.edu,VG3802848293466580595716,"P.O. Box 300, 5917 Tristique St.",Champigny-sur-Marne,IA98 1WT,Île-de-France,2,Radiation Therapy
Stephanie Vang,1-434-300-5458,pede@orciDonec.edu,BG66BPTR24400425781265,"P.O. Box 803, 4238 Massa. Av.",Évreux,8661,Haute-Normandie,3,Clinical Life Science - Perfusion Technology
Kato Mendez,1-796-750-0215,lectus.pede@consectetuermaurisid.com,BG40KIPB62845509198860,"P.O. Box 394, 9936 Auctor Street",Bida,9619,NI,5,Engineering Science
Dahlia Maldonado,1-736-681-1250,pellentesque.Sed@at.ca,ES8253103068152429177786,393-961 Nulla Road,Breda,37064-792,Noord Brabant,2,Public Health
Robin Spencer,1-792-922-3098,mauris@adipiscingfringilla.net,SI68742170537756139,"2318 Nec, Av.",Santa Caterina Villarmosa,8258,Sicilia,5,Chemistry
Breanna Alvarez,1-181-788-6520,faucibus.id@diam.edu,TN4904804989296350341559,7826 Ligula. Road,Makurdi,60626,Benue,5,Disaster Management
Celeste Ortiz,1-515-432-8492,nec.ante.Maecenas@quislectus.co.uk,HR4387956610222682980,"P.O. Box 891, 5967 Vitae, Av.",Campinas,71217,SP,5,Management and Organizational Behavior
Cruz Christensen,1-630-698-5667,vulputate.risus.a@sitametfaucibus.co.uk,SA7785392627324406958549,6853 Semper Road,Chiniot,02140-194,Punjab,4,Higher Education and Organizational Change
Quinlan Mccarty,1-569-628-5638,Phasellus.dapibus.quam@tristiquesenectus.net,AE127362744209434506392,Ap #539-969 Nunc Rd.,Mol,6953,Antwerpen,4,Project Management
Jerry Zamora,1-341-542-7505,cursus.a@urnasuscipit.ca,AZ14670041127814280952859699,Ap #351-1867 Et Road,Berlin,39755,BE,5,Global Studies (Asian Studies)
Wesley Carter,1-645-601-8575,in.hendrerit@aliquetvel.net,MC9031267896652021608238468,665-709 Congue Street,Galway,7459,Connacht,2,Sociology - Criminal Justice
Giselle Myers,1-530-987-9524,Phasellus@placeratCrasdictum.net,RO34GSZK5518024538390021,"P.O. Box 605, 5663 Nulla. Av.",Dublin,4728,L,5,Sustainable Business and Leadership
Geraldine Solomon,1-407-162-2662,auctor.vitae@aliquetmagnaa.co.uk,EE417582004872822369,"P.O. Box 955, 9235 Malesuada Av.",Metairie,7382,Louisiana,3,Health Science (4+1)
Iola Head,1-917-139-2105,Phasellus.nulla@metusurnaconvallis.org,EE819728236804968936,870-829 Viverra. Road,Bourges,1552,Centre,2,Chemistry
Howard Bass,1-165-566-5947,mauris.ipsum.porta@ac.org,CZ7675327937143751433870,"P.O. Box 697, 4494 Elit. St.",Çe?me,O1 8UZ,?zmir,5,Computer Information Systems
Tanner Chang,1-815-124-3122,at.libero.Morbi@ullamcorperDuiscursus.ca,IE11XEQW28063988020659,317-630 Ut Av.,Vienna,6140,Vienna,3,International Studies
Jamal Cummings,1-412-759-3751,eu.eros@adipiscing.com,CH5218603859883140551,1905 Sed Rd.,Sluis,33791,Zl,4,Psychology
Allen Horne,1-858-670-7317,at.nisi@risus.org,TN7781106333744515166392,"Ap #652-7737 Purus, St.",Geelong,6926,VIC,2,Clinical Exercise Physiology
Isabelle Joseph,1-422-407-6015,Etiam.laoreet.libero@ornare.com,VG3919852186620163560661,577-5130 Vel St.,Istanbul,4058,Ist,2,Pre-Professional Health Programs
Clarke Kelley,1-413-749-8129,ut.nisi@tempor.com,ES3370548989439906371683,3377 Mollis Rd.,Bowden,49820,Alberta,2,Elementary Education
Zachary Delgado,1-424-689-9923,at.sem.molestie@nequesedsem.net,RO25WBTW5074520937395174,148-6552 Sed Road,Dublin,716605,L,3,Accountancy
Lysandra Bryan,1-455-113-6408,ligula@nunc.com,LU413442919193565290,"P.O. Box 393, 119 Justo Street",Coalville,97820,Leicestershire,5,Chemistry
Chelsea Coleman,1-743-520-9767,et.euismod.et@eusem.org,GE54491408803503045016,3341 Pede. Rd.,Sparwood,60076,BC,4,Sociology - Criminal Justice
Isabella Whitney,1-145-394-8381,iaculis@imperdietnon.co.uk,TR047573140573536043950445,625-4894 Dui. St.,Beauwelz,986488,Henegouwen,5,Business Administration
Zia Britt,1-694-276-7591,varius.Nam.porttitor@vitae.ca,EE188343641467757617,Ap #758-5456 Cum St.,Gore,1745,SI,5,Exercise and Sports Studies
Mari Crawford,1-680-821-7112,Vestibulum.ut@egestasurnajusto.net,DO09774336935318839234011573,994-2611 Auctor Rd.,Thunder Bay,524381,Ontario,4,Public Health
Elaine Hardy,1-938-850-9729,neque.vitae.semper@ac.org,GB71WXMK57382686318993,"P.O. Box 377, 8041 Lobortis, Road",Moerkerke,40967,West-Vlaanderen,4,Emergency Preparedness
Hilel Drake,1-947-367-6882,nunc.sit.amet@ante.co.uk,GB57FYYF37136845241181,"333-5696 Vitae, St.",Mackay,M5J 0QG,Queensland,4,Information Systems Management
Rashad Baker,1-123-724-3228,Cras.dictum.ultricies@atiaculisquis.ca,SM8147189273783824694752503,9579 A St.,Tampa,3833,Florida,3,Information Security
Tallulah Sharpe,1-601-121-6833,Nunc.sed@Proinsedturpis.co.uk,SI16719008392393422,401-9321 Eu St.,Warri,70704,DE,3,Entrepreneurship and Managing Innovation
Jordan Castillo,1-549-395-7098,Praesent.interdum@augueeutellus.co.uk,NO5807320670961,9001 Donec Av.,Narbonne,00133-345,LA,4,Sociology
Jael Steele,1-980-761-8712,vel.lectus@risus.ca,IT527MUOJI79048827166709852,Ap #867-4893 Porttitor Rd.,Hamburg,59119,Hamburg,3,Nutrition Entrepreneurship
Emerald Best,1-455-313-9700,pede.ac@in.edu,DO88089954996818684000071121,744 Nibh Av.,Alajuela,F10 5FI,Alajuela,5,Social Science
Kirby Carter,1-236-300-1895,Proin.dolor.Nulla@nequeMorbi.edu,TR136173134072857060316225,"P.O. Box 683, 5571 Purus Av.",Jundiaí,98340,São Paulo,3,International Business and Economics
Sasha Logan,1-240-289-4124,arcu.Nunc.mauris@interdumligulaeu.org,KW5096526933275856463828401510,Ap #573-3852 Nulla Rd.,Istanbul,50225,Istanbul,2,International Studies
Aurelia Meyers,1-884-423-4170,fringilla.porttitor.vulputate@sit.co.uk,PL12582750481069026967512197,Ap #665-7352 Enim. Avenue,Meridian,60789,Idaho,4,Economics
Zane Hudson,1-448-324-8395,dolor@magna.co.uk,ES9242463242433524508711,7290 A Rd.,Pi?a,51871,WP,2,Project Management
Jeanette Sanders,1-131-683-3399,elit.a.feugiat@Nullaeuneque.ca,LU872664648649764485,Ap #619-526 Integer Ave,Quesada,N6Z 8X3,A,3,Biochemistry / Molecular Biology
Dennis Blair,1-257-976-6409,rhoncus.Proin@elementumloremut.edu,DK4839983380931006,2192 Tristique Avenue,Alcorcón,86999,MA,5,Taxation
Sydnee Stark,1-500-309-7868,molestie@eleifendegestas.co.uk,RO55DVTH6239429408565554,3654 Bibendum Rd.,Luziânia,439154,Goiás,5,Emergency Preparedness
Nathaniel Vaughan,1-409-114-0288,hendrerit.Donec@malesuada.org,GE14817202483044945399,216-5891 Cras St.,San José,1677,SJ,3,Service Management
Wyatt Donaldson,1-120-455-7938,non.justo@risusQuisquelibero.com,IE66WQKL55711061348069,5076 Fringilla Rd.,Dublin,99851,Leinster,4,Environmental Science
Maia Huff,1-587-631-9176,Pellentesque@tellusSuspendisse.com,BA731200891295768504,"P.O. Box 836, 8928 Facilisis Avenue",Balclutha,4282,South Island,3,Economics
Nathan Kinney,1-542-582-5590,et.lacinia.vitae@morbitristique.net,PK9762228044777090682255,9982 Non Ave,Juiz de Fora,5412,MG,2,Health Administration
Kerry Hamilton,1-216-888-6091,quis.lectus.Nullam@orciluctuset.edu,FR8049747528101110104357987,"4863 Dolor, St.",Avignon,3898,PR,2,Accounting
Rama Le,1-811-830-7782,in.dolor@nequeseddictum.ca,PT80524214831226237506616,488-9017 Tempus St.,Berlin,87283,BE,4,Accounting
